IRIDIUM 163             
1 43575U 18061G   26176.16618632  .00000085  00000+0  23197-4 0  9993
2 43575  86.3955  53.3855 0002207  83.6265 276.5182 14.34217532414521
IRIDIUM 156             
1 43576U 18061H   26176.14082164  .00000220  00000+0  71537-4 0  9999
2 43576  86.3955  53.4034 0002007  84.9000 275.2425 14.34218178414513
IRIDIUM 164             
1 43577U 18061J   26176.12178789  .00000098  00000+0  27884-4 0  9996
2 43577  86.3956  53.4518 0002187  89.6565 270.4881 14.34218069414555
IRIDIUM 159             
1 43578U 18061K   26176.15984370 -.00000007  00000+0 -95293-5 0  9993
2 43578  86.3949  53.3724 0002123  83.6836 276.4602 14.34217383414523
IRIDIUM 180             
1 43922U 19002A   26176.01980230  .00000018  00000+0 -51119-6 0  9999
2 43922  86.3969 350.3225 0002132  89.1802 270.9638 14.34217516390112
IRIDIUM 176             
1 43923U 19002B   26175.97518453  .00000575  00000+0  87378-4 0  9999
2 43923  86.6088 350.2836 0002426  88.5204 271.6291 14.72223285400397
IRIDIUM 168             
1 43924U 19002C   26176.01345330  .00000249  00000+0  81702-4 0  9991
2 43924  86.3974 350.4025 0002224  90.1496 269.9954 14.34217024390092
IRIDIUM 173             
1 43925U 19002D   26176.00077500  .00000074  00000+0  19210-4 0  9993
2 43925  86.3972 350.2964 0002157  88.2466 271.8977 14.34217867390071
IRIDIUM 169             
1 43926U 19002E   26176.11204176  .00000376  00000+0  11641-3 0  9991
2 43926  86.4221  21.8794 0001690  80.5451 279.5938 14.38607104391368
IRIDIUM 172             
1 43927U 19002F   26175.99443006  .00000036  00000+0  58892-5 0  9998
2 43927  86.3971 350.3067 0002251  90.2889 269.8565 14.34217023390089
IRIDIUM 175             
1 43928U 19002G   26175.06869595  .00000256  00000+0  69613-4 0  9998
2 43928  86.4515 287.6441 0003402 160.3298 199.8035 14.43615979399978
IRIDIUM 171             
1 43929U 19002H   26176.18470942  .00000004  00000+0 -55358-5 0  9991
2 43929  86.3978 350.5346 0001949  93.2388 266.9030 14.34217541390103
IRIDIUM 170             
1 43930U 19002J   26176.18526907  .00000948  00000+0  14661-3 0  9992
2 43930  86.6091 350.1978 0002547  86.2953 273.8556 14.72224992400434
IRIDIUM 167             
1 43931U 19002K   26176.17836644  .00000016  00000+0 -15274-5 0  9994
2 43931  86.3968 350.2526 0001866  96.7233 263.4176 14.34217680390104
IRIDIUM 181             
1 56726U 23068S   26176.14866744  .00000269  00000+0  73928-4 0  9996
2 56726  86.4492  53.4623 0002400  87.9874 272.1602 14.43310236163583
IRIDIUM 177             
1 56727U 23068T   26176.16436667  .00001025  00000+0  13143-3 0  9999
2 56727  86.1969 325.0021 0002373  89.1611 270.9881 14.80226431167541
IRIDIUM 174             
1 56728U 23068U   26175.96903084  .00000975  00000+0  15079-3 0  9992
2 56728  86.6100 350.4364 0002460  80.5012 279.6483 14.72231919167163
IRIDIUM 178             
1 56729U 23068V   26176.01826014  .00000911  00000+0  11636-3 0  9992
2 56729  86.6534  22.0866 0002560  84.3530 275.7983 14.80245996167523
IRIDIUM 179             
1 56730U 23068W   26176.08049769  .00000406  00000+0  50026-4 0  9991
2 56730  86.6769  31.0642 0002439  89.7326 270.4175 14.80227567167534
